[{"OBJECT_NAME":"BREEZE-M R/B","OBJECT_ID":"2018-037B","EPOCH":"2026-04-05T06:33:43.214976","MEAN_MOTION":0.90514411,"ECCENTRICITY":0.06778177,"INCLINATION":7.9416,"RA_OF_ASC_NODE":72.0205,"ARG_OF_PERICENTER":26.498,"MEAN_ANOMALY":336.8187,"EPHEMERIS_TYPE":0,"CLASSIFICATION_TYPE":"U","NORAD_CAT_ID":43433,"ELEMENT_SET_NO":999,"REV_AT_EPOCH":2654,"BSTAR":0,"MEAN_MOTION_DOT":-1.87e-6,"MEAN_MOTION_DDOT":0},{"OBJECT_NAME":"APSTAR-6C","OBJECT_ID":"2018-041A","EPOCH":"2026-04-04T21:13:54.241248","MEAN_MOTION":1.00268727,"ECCENTRICITY":0.0002422,"INCLINATION":0.0172,"RA_OF_ASC_NODE":9.2613,"ARG_OF_PERICENTER":356.8164,"MEAN_ANOMALY":279.6062,"EPHEMERIS_TYPE":0,"CLASSIFICATION_TYPE":"U","NORAD_CAT_ID":43450,"ELEMENT_SET_NO":999,"REV_AT_EPOCH":2907,"BSTAR":0,"MEAN_MOTION_DOT":0,"MEAN_MOTION_DDOT":0},{"OBJECT_NAME":"TITAN 3C TRANSTAGE DEB","OBJECT_ID":"1969-013L","EPOCH":"2026-04-05T01:10:53.014080","MEAN_MOTION":1.07384675,"ECCENTRICITY":0.07663285,"INCLINATION":1.4356,"RA_OF_ASC_NODE":141.2719,"ARG_OF_PERICENTER":327.3242,"MEAN_ANOMALY":28.9486,"EPHEMERIS_TYPE":0,"CLASSIFICATION_TYPE":"U","NORAD_CAT_ID":43453,"ELEMENT_SET_NO":999,"REV_AT_EPOCH":3125,"BSTAR":0,"MEAN_MOTION_DOT":-1.63e-6,"MEAN_MOTION_DDOT":0},{"OBJECT_NAME":"TITAN 3C TRANSTAGE DEB","OBJECT_ID":"1969-013M","EPOCH":"2026-04-04T01:20:38.330016","MEAN_MOTION":1.02843613,"ECCENTRICITY":0.05463034,"INCLINATION":0.9954,"RA_OF_ASC_NODE":130.6664,"ARG_OF_PERICENTER":340.4661,"MEAN_ANOMALY":254.7534,"EPHEMERIS_TYPE":0,"CLASSIFICATION_TYPE":"U","NORAD_CAT_ID":43454,"ELEMENT_SET_NO":999,"REV_AT_EPOCH":2987,"BSTAR":0,"MEAN_MOTION_DOT":-2.8e-7,"MEAN_MOTION_DDOT":0},{"OBJECT_NAME":"TITAN 3C TRANSTAGE DEB","OBJECT_ID":"1969-013P","EPOCH":"2026-04-04T19:46:04.185984","MEAN_MOTION":1.0272375,"ECCENTRICITY":0.0873897,"INCLINATION":1.8025,"RA_OF_ASC_NODE":49.1327,"ARG_OF_PERICENTER":30.5732,"MEAN_ANOMALY":334.3106,"EPHEMERIS_TYPE":0,"CLASSIFICATION_TYPE":"U","NORAD_CAT_ID":43456,"ELEMENT_SET_NO":999,"REV_AT_EPOCH":597,"BSTAR":0,"MEAN_MOTION_DOT":-2.62e-6,"MEAN_MOTION_DDOT":0},{"OBJECT_NAME":"BANGABANDHUSAT-1","OBJECT_ID":"2018-044A","EPOCH":"2026-04-04T23:40:38.655264","MEAN_MOTION":1.00272426,"ECCENTRICITY":0.00025134,"INCLINATION":0.0177,"RA_OF_ASC_NODE":191.341,"ARG_OF_PERICENTER":198.5275,"MEAN_ANOMALY":277.6847,"EPHEMERIS_TYPE":0,"CLASSIFICATION_TYPE":"U","NORAD_CAT_ID":43463,"ELEMENT_SET_NO":999,"REV_AT_EPOCH":2897,"BSTAR":0,"MEAN_MOTION_DOT":-3.62e-6,"MEAN_MOTION_DDOT":0},{"OBJECT_NAME":"SES-12","OBJECT_ID":"2018-049A","EPOCH":"2026-04-05T02:55:42.444192","MEAN_MOTION":1.00272409,"ECCENTRICITY":0.00016464,"INCLINATION":0.04,"RA_OF_ASC_NODE":47.843,"ARG_OF_PERICENTER":265.9853,"MEAN_ANOMALY":18.5234,"EPHEMERIS_TYPE":0,"CLASSIFICATION_TYPE":"U","NORAD_CAT_ID":43488,"ELEMENT_SET_NO":999,"REV_AT_EPOCH":2868,"BSTAR":0,"MEAN_MOTION_DOT":-2.69e-6,"MEAN_MOTION_DDOT":0},{"OBJECT_NAME":"FENGYUN 2H","OBJECT_ID":"2018-050A","EPOCH":"2026-04-05T02:51:12.875328","MEAN_MOTION":1.00270591,"ECCENTRICITY":0.000116,"INCLINATION":2.8427,"RA_OF_ASC_NODE":79.9459,"ARG_OF_PERICENTER":170.5694,"MEAN_ANOMALY":64.7485,"EPHEMERIS_TYPE":0,"CLASSIFICATION_TYPE":"U","NORAD_CAT_ID":43491,"ELEMENT_SET_NO":999,"REV_AT_EPOCH":2870,"BSTAR":0,"MEAN_MOTION_DOT":-1.24e-6,"MEAN_MOTION_DDOT":0},{"OBJECT_NAME":"FENGYUN 2H AKM","OBJECT_ID":"2018-050C","EPOCH":"2026-04-05T03:17:57.954048","MEAN_MOTION":1.00079655,"ECCENTRICITY":0.00889383,"INCLINATION":4.6817,"RA_OF_ASC_NODE":77.5189,"ARG_OF_PERICENTER":322.9455,"MEAN_ANOMALY":36.575,"EPHEMERIS_TYPE":0,"CLASSIFICATION_TYPE":"U","NORAD_CAT_ID":43497,"ELEMENT_SET_NO":999,"REV_AT_EPOCH":2857,"BSTAR":0,"MEAN_MOTION_DOT":1.03e-6,"MEAN_MOTION_DDOT":0},{"OBJECT_NAME":"TITAN 3C TRANSTAGE DEB","OBJECT_ID":"1969-013S","EPOCH":"2026-04-04T05:50:11.992704","MEAN_MOTION":0.97800549,"ECCENTRICITY":0.0217715,"INCLINATION":1.3412,"RA_OF_ASC_NODE":60.8806,"ARG_OF_PERICENTER":46.6314,"MEAN_ANOMALY":315.6308,"EPHEMERIS_TYPE":0,"CLASSIFICATION_TYPE":"U","NORAD_CAT_ID":43514,"ELEMENT_SET_NO":999,"REV_AT_EPOCH":87763,"BSTAR":0,"MEAN_MOTION_DOT":-3.0e-6,"MEAN_MOTION_DDOT":0},{"OBJECT_NAME":"BEIDOU-2 IGSO-7","OBJECT_ID":"2018-057A","EPOCH":"2026-03-27T15:08:38.812992","MEAN_MOTION":1.00275701,"ECCENTRICITY":0.01017729,"INCLINATION":55.1838,"RA_OF_ASC_NODE":163.7722,"ARG_OF_PERICENTER":237.2605,"MEAN_ANOMALY":124.1194,"EPHEMERIS_TYPE":0,"CLASSIFICATION_TYPE":"U","NORAD_CAT_ID":43539,"ELEMENT_SET_NO":999,"REV_AT_EPOCH":2831,"BSTAR":0,"MEAN_MOTION_DOT":-1.68e-6,"MEAN_MOTION_DDOT":0},{"OBJECT_NAME":"TELSTAR 19V","OBJECT_ID":"2018-059A","EPOCH":"2026-04-05T02:00:27.987264","MEAN_MOTION":1.00270241,"ECCENTRICITY":0.00016544,"INCLINATION":0.0184,"RA_OF_ASC_NODE":182.5788,"ARG_OF_PERICENTER":255.2098,"MEAN_ANOMALY":82.7077,"EPHEMERIS_TYPE":0,"CLASSIFICATION_TYPE":"U","NORAD_CAT_ID":43562,"ELEMENT_SET_NO":999,"REV_AT_EPOCH":2841,"BSTAR":0,"MEAN_MOTION_DOT":-2.79e-6,"MEAN_MOTION_DDOT":0},{"OBJECT_NAME":"TELKOM 4 (MERAH PUTIH)","OBJECT_ID":"2018-064A","EPOCH":"2026-04-05T06:24:37.149696","MEAN_MOTION":1.00271507,"ECCENTRICITY":0.00029465,"INCLINATION":0.0195,"RA_OF_ASC_NODE":123.8002,"ARG_OF_PERICENTER":297.0392,"MEAN_ANOMALY":336.8763,"EPHEMERIS_TYPE":0,"CLASSIFICATION_TYPE":"U","NORAD_CAT_ID":43587,"ELEMENT_SET_NO":999,"REV_AT_EPOCH":2814,"BSTAR":0,"MEAN_MOTION_DOT":-3.43e-6,"MEAN_MOTION_DDOT":0},{"OBJECT_NAME":"TELSTAR 18V","OBJECT_ID":"2018-069A","EPOCH":"2026-04-05T06:33:21.311712","MEAN_MOTION":1.00270358,"ECCENTRICITY":0.00023642,"INCLINATION":0.0129,"RA_OF_ASC_NODE":249.4658,"ARG_OF_PERICENTER":125.5815,"MEAN_ANOMALY":54.8551,"EPHEMERIS_TYPE":0,"CLASSIFICATION_TYPE":"U","NORAD_CAT_ID":43611,"ELEMENT_SET_NO":999,"REV_AT_EPOCH":2790,"BSTAR":0,"MEAN_MOTION_DOT":-2.93e-6,"MEAN_MOTION_DDOT":0},{"OBJECT_NAME":"AZERSPACE 2 (IS-38)","OBJECT_ID":"2018-074A","EPOCH":"2026-04-05T04:24:11.457216","MEAN_MOTION":1.00269983,"ECCENTRICITY":0.0001453,"INCLINATION":0.0163,"RA_OF_ASC_NODE":230.6569,"ARG_OF_PERICENTER":143.7344,"MEAN_ANOMALY":290.2572,"EPHEMERIS_TYPE":0,"CLASSIFICATION_TYPE":"U","NORAD_CAT_ID":43632,"ELEMENT_SET_NO":999,"REV_AT_EPOCH":2771,"BSTAR":0,"MEAN_MOTION_DOT":1.38e-6,"MEAN_MOTION_DDOT":0},{"OBJECT_NAME":"HORIZONS-3E","OBJECT_ID":"2018-074B","EPOCH":"2026-04-04T20:26:09.676032","MEAN_MOTION":1.00272146,"ECCENTRICITY":7.77e-5,"INCLINATION":0.0021,"RA_OF_ASC_NODE":153.712,"ARG_OF_PERICENTER":169.9498,"MEAN_ANOMALY":345.0402,"EPHEMERIS_TYPE":0,"CLASSIFICATION_TYPE":"U","NORAD_CAT_ID":43633,"ELEMENT_SET_NO":999,"REV_AT_EPOCH":2760,"BSTAR":0,"MEAN_MOTION_DOT":-3.0e-7,"MEAN_MOTION_DDOT":0},{"OBJECT_NAME":"FENGYUN 2H DEB","OBJECT_ID":"2018-050D","EPOCH":"2026-04-04T12:30:07.159680","MEAN_MOTION":1.00299805,"ECCENTRICITY":0.00737548,"INCLINATION":4.7107,"RA_OF_ASC_NODE":77.113,"ARG_OF_PERICENTER":272.8671,"MEAN_ANOMALY":86.437,"EPHEMERIS_TYPE":0,"CLASSIFICATION_TYPE":"U","NORAD_CAT_ID":43645,"ELEMENT_SET_NO":999,"REV_AT_EPOCH":2818,"BSTAR":0,"MEAN_MOTION_DOT":7.5e-7,"MEAN_MOTION_DDOT":0},{"OBJECT_NAME":"FENGYUN 2G DEB","OBJECT_ID":"2014-090D","EPOCH":"2026-04-04T10:28:02.455392","MEAN_MOTION":1.00213552,"ECCENTRICITY":0.02268916,"INCLINATION":7.3559,"RA_OF_ASC_NODE":69.1571,"ARG_OF_PERICENTER":287.9068,"MEAN_ANOMALY":69.6723,"EPHEMERIS_TYPE":0,"CLASSIFICATION_TYPE":"U","NORAD_CAT_ID":43646,"ELEMENT_SET_NO":999,"REV_AT_EPOCH":4096,"BSTAR":0,"MEAN_MOTION_DOT":-1.62e-6,"MEAN_MOTION_DDOT":0},{"OBJECT_NAME":"AEHF-4 (USA 288)","OBJECT_ID":"2018-079A","EPOCH":"2026-04-05T03:55:38.461440","MEAN_MOTION":1.00274891,"ECCENTRICITY":0.00638041,"INCLINATION":1.4229,"RA_OF_ASC_NODE":357.5375,"ARG_OF_PERICENTER":359.0682,"MEAN_ANOMALY":188.2339,"EPHEMERIS_TYPE":0,"CLASSIFICATION_TYPE":"U","NORAD_CAT_ID":43651,"ELEMENT_SET_NO":999,"REV_AT_EPOCH":2756,"BSTAR":0,"MEAN_MOTION_DOT":-2.75e-6,"MEAN_MOTION_DDOT":0},{"OBJECT_NAME":"BEIDOU-3 G1","OBJECT_ID":"2018-085A","EPOCH":"2026-04-01T20:42:38.441952","MEAN_MOTION":1.00268589,"ECCENTRICITY":0.00020589,"INCLINATION":2.882,"RA_OF_ASC_NODE":99.4564,"ARG_OF_PERICENTER":12.9832,"MEAN_ANOMALY":168.3736,"EPHEMERIS_TYPE":0,"CLASSIFICATION_TYPE":"U","NORAD_CAT_ID":43683,"ELEMENT_SET_NO":999,"REV_AT_EPOCH":2729,"BSTAR":0,"MEAN_MOTION_DOT":-2.84e-6,"MEAN_MOTION_DDOT":0},{"OBJECT_NAME":"GSAT-29","OBJECT_ID":"2018-089A","EPOCH":"2026-04-05T04:27:03.681792","MEAN_MOTION":1.00273952,"ECCENTRICITY":0.00024087,"INCLINATION":0.0422,"RA_OF_ASC_NODE":78.4181,"ARG_OF_PERICENTER":306.5559,"MEAN_ANOMALY":290.3174,"EPHEMERIS_TYPE":0,"CLASSIFICATION_TYPE":"U","NORAD_CAT_ID":43698,"ELEMENT_SET_NO":999,"REV_AT_EPOCH":2705,"BSTAR":0,"MEAN_MOTION_DOT":8.6e-7,"MEAN_MOTION_DDOT":0},{"OBJECT_NAME":"ES'HAIL 2","OBJECT_ID":"2018-090A","EPOCH":"2026-04-05T05:12:38.653056","MEAN_MOTION":1.00269802,"ECCENTRICITY":0.00012757,"INCLINATION":0.018,"RA_OF_ASC_NODE":211.3874,"ARG_OF_PERICENTER":182.2664,"MEAN_ANOMALY":263.852,"EPHEMERIS_TYPE":0,"CLASSIFICATION_TYPE":"U","NORAD_CAT_ID":43700,"ELEMENT_SET_NO":999,"REV_AT_EPOCH":2694,"BSTAR":0,"MEAN_MOTION_DOT":1.45e-6,"MEAN_MOTION_DDOT":0},{"OBJECT_NAME":"GEO-KOMPSAT-2A","OBJECT_ID":"2018-100A","EPOCH":"2026-04-04T23:39:54.277632","MEAN_MOTION":1.00273311,"ECCENTRICITY":0.00019577,"INCLINATION":0.0527,"RA_OF_ASC_NODE":37.7483,"ARG_OF_PERICENTER":23.3348,"MEAN_ANOMALY":255.4434,"EPHEMERIS_TYPE":0,"CLASSIFICATION_TYPE":"U","NORAD_CAT_ID":43823,"ELEMENT_SET_NO":999,"REV_AT_EPOCH":2689,"BSTAR":0,"MEAN_MOTION_DOT":-3.43e-6,"MEAN_MOTION_DDOT":0},{"OBJECT_NAME":"GSAT-11","OBJECT_ID":"2018-100B","EPOCH":"2026-04-05T04:32:10.692096","MEAN_MOTION":1.00272065,"ECCENTRICITY":0.00065434,"INCLINATION":0.0718,"RA_OF_ASC_NODE":261.2415,"ARG_OF_PERICENTER":163.5818,"MEAN_ANOMALY":270.6929,"EPHEMERIS_TYPE":0,"CLASSIFICATION_TYPE":"U","NORAD_CAT_ID":43824,"ELEMENT_SET_NO":999,"REV_AT_EPOCH":2674,"BSTAR":0,"MEAN_MOTION_DOT":-7.6e-7,"MEAN_MOTION_DDOT":0}]
